NORAD_CAT_ID,OBJECT_NAME,OBJECT_TYPE,EPOCH,MEAN_MOTION,ECCENTRICITY,INCLINATION,RA_OF_ASC_NODE,ARG_OF_PERICENTER,MEAN_ANOMALY,BSTAR,MEAN_MOTION_DOT,MEAN_MOTION_DDOT,TLE_LINE0,TLE_LINE1,TLE_LINE2,SEMIMAJOR_AXIS,PERIOD,APOGEE,PERIGEE,DECAYED
55277.0,STARLINK-5299,PAYLOAD,2023-09-10 04:56:29,14.98334469,0.0002991,70.0013,182.6643,268.3707,91.7109,7.8325e-06,0.0,0.0,0 STARLINK-5299,1 55277U 23010J   23253.20589475  .00000000  00000-0  78325-5 0  9997,2 55277  70.0013 182.6643 0002991 268.3707  91.7109 14.98334469 35942,6950.179,96.107,574.123,569.965,0.0
55277.0,STARLINK-5299,PAYLOAD,2023-09-11 01:46:14,14.98331012,0.0003071,70.0013,180.4763,269.399,90.6818,-0.00015601,-1.954e-05,0.0,0 STARLINK-5299,1 55277U 23010J   23254.07378247 -.00001954  00000-0 -15601-3 0  9993,2 55277  70.0013 180.4763 0003071 269.3990  90.6818 14.98331012 36077,6950.19,96.107,574.189,569.92,0.0
55277.0,STARLINK-5299,PAYLOAD,2023-09-11 12:59:10,14.98327832,0.0003048,70.0014,179.298,260.9758,99.1057,2.4992e-05,2.05e-06,0.0,0 STARLINK-5299,1 55277U 23010J   23254.54109911  .00000205  00000-0  24992-4 0  9995,2 55277  70.0014 179.2980 0003048 260.9758  99.1057 14.98327832 36454,6950.2,96.107,574.183,569.946,0.0
55277.0,STARLINK-5299,PAYLOAD,2023-09-12 01:48:14,14.98335938,0.0003007,70.0015,177.952,271.0974,88.984,7.61e-05,8.15e-06,0.0,0 STARLINK-5299,1 55277U 23010J   23255.07517302  .00000815  00000-0  76100-4 0  9996,2 55277  70.0015 177.9520 0003007 271.0974  88.9840 14.98335938 36225,6950.175,96.107,574.129,569.95,0.0
55277.0,STARLINK-5299,PAYLOAD,2023-09-12 05:00:30,14.98339197,0.0003011,70.0015,177.6154,270.6905,89.3909,0.0001021,1.126e-05,0.0,0 STARLINK-5299,1 55277U 23010J   23255.20868926  .00001126  00000-0  10210-3 0  9997,2 55277  70.0015 177.6154 0003011 270.6905  89.3909 14.98339197 36557,6950.164,96.106,574.122,569.937,0.0
55277.0,STARLINK-5299,PAYLOAD,2023-09-12 21:01:52,14.98317997,0.0002775,70.0021,175.9322,272.9347,87.1495,0.00022357,2.575e-05,0.0,0 STARLINK-5299,1 55277U 23010J   23255.87629712  .00002575  00000-0  22357-3 0  9992,2 55277  70.0021 175.9322 0002775 272.9347  87.1495 14.98317997 36654,6950.23,96.108,574.024,570.166,0.0
55277.0,STARLINK-5299,PAYLOAD,2023-09-13 01:50:15,14.9832979,0.0002647,70.0025,175.4283,268.757,91.3286,0.00012376,1.384e-05,0.0,0 STARLINK-5299,1 55277U 23010J   23256.07657333  .00001384  00000-0  12376-3 0  9992,2 55277  70.0025 175.4283 0002647 268.7570  91.3286 14.98329790 36376,6950.194,96.107,573.898,570.219,0.0
55277.0,STARLINK-5299,PAYLOAD,2023-09-13 05:02:31,14.98334868,0.0002688,70.0026,175.0923,271.4688,88.6163,0.00013194,1.482e-05,0.0,0 STARLINK-5299,1 55277U 23010J   23256.21008974  .00001482  00000-0  13194-3 0  9997,2 55277  70.0026 175.0923 0002688 271.4688  88.6163 14.98334868 36702,6950.178,96.107,573.911,570.175,0.0
55277.0,STARLINK-5299,PAYLOAD,2023-09-13 21:03:52,14.98330121,0.0002592,70.0031,173.4113,262.4584,97.628,-6.6433e-05,-8.85e-06,0.0,0 STARLINK-5299,1 55277U 23010J   23256.87769577 -.00000885  00000-0 -66433-4 0  9995,2 55277  70.0031 173.4113 0002592 262.4584  97.6280 14.98330121 36809,6950.193,96.107,573.859,570.256,0.0
55277.0,STARLINK-5299,PAYLOAD,2023-09-14 01:52:17,14.98330755,0.0002882,70.0021,172.904,263.2388,96.8443,-6.6297e-05,-8.84e-06,0.0,0 STARLINK-5299,1 55277U 23010J   23257.07797460 -.00000884  00000-0 -66297-4 0  9997,2 55277  70.0021 172.9040 0002882 263.2388  96.8443 14.98330755 36528,6950.191,96.107,574.059,570.053,0.0
55277.0,STARLINK-5299,PAYLOAD,2023-09-14 03:28:25,14.98323255,0.0002501,70.0022,172.7357,252.8479,107.2407,8.5461e-05,9.27e-06,0.0,0 STARLINK-5299,1 55277U 23010J   23257.14473567  .00000927  00000-0  85461-4 0  9994,2 55277  70.0022 172.7357 0002501 252.8479 107.2407 14.98323255 36840,6950.214,96.107,573.817,570.341,0.0
55277.0,STARLINK-5299,PAYLOAD,2023-09-14 21:05:53,14.98328129,0.0002702,70.002,170.8849,257.7245,102.3611,-7.7643e-05,-1.019e-05,0.0,0 STARLINK-5299,1 55277U 23010J   23257.87909692 -.00001019  00000-0 -77643-4 0  9995,2 55277  70.0020 170.8849 0002702 257.7245 102.3611 14.98328129 36951,6950.199,96.107,573.942,570.186,0.0
55277.0,STARLINK-5299,PAYLOAD,2023-09-15 01:54:18,14.98326745,0.0002609,70.0025,170.3804,249.362,110.7259,-5.5339e-05,-7.53e-06,0.0,0 STARLINK-5299,1 55277U 23010J   23258.07937711 -.00000753  00000-0 -55339-4 0  9993,2 55277  70.0025 170.3804 0002609 249.3620 110.7259 14.98326745 36674,6950.203,96.107,573.881,570.255,0.0
55277.0,STARLINK-5299,PAYLOAD,2023-09-15 03:30:26,14.9832651,0.0002666,70.0022,170.2118,247.68,112.4077,-3.4866e-05,-5.09e-06,0.0,0 STARLINK-5299,1 55277U 23010J   23258.14613676 -.00000509  00000-0 -34866-4 0  9993,2 55277  70.0022 170.2118 0002666 247.6800 112.4077 14.98326510 36994,6950.204,96.107,573.922,570.216,0.0
55277.0,STARLINK-5299,PAYLOAD,2023-09-15 17:55:38,14.98331778,0.0002334,70.0027,168.698,251.6498,108.4407,9.1022e-05,9.93e-06,0.0,0 STARLINK-5299,1 55277U 23010J   23258.74696984  .00000993  00000-0  91022-4 0  9994,2 55277  70.0027 168.6980 0002334 251.6498 108.4407 14.98331778 36777,6950.187,96.107,573.675,570.43,0.0
55277.0,STARLINK-5299,PAYLOAD,2023-09-16 03:32:26,14.98335366,0.0002897,70.0013,167.6855,266.7142,93.3686,0.00010472,1.157e-05,0.0,0 STARLINK-5299,1 55277U 23010J   23259.14752658  .00001157  00000-0  10472-3 0  9992,2 55277  70.0013 167.6855 0002897 266.7142  93.3686 14.98335366 37149,6950.176,96.107,574.055,570.028,0.0
55277.0,STARLINK-5299,PAYLOAD,2023-09-17 01:58:19,14.98326342,0.0002914,70.0012,165.3287,270.9513,89.1312,7.2325e-06,-7e-08,0.0,0 STARLINK-5299,1 55277U 23010J   23260.08217588 -.00000007  00000-0  72325-5 0  9996,2 55277  70.0012 165.3287 0002914 270.9513  89.1312 14.98326342 36974,6950.204,96.107,574.094,570.044,0.0
55277.0,STARLINK-5299,PAYLOAD,2023-09-17 05:10:36,14.98327632,0.000292,70.0014,164.9924,271.5078,88.5747,3.8847e-05,3.71e-06,0.0,0 STARLINK-5299,1 55277U 23010J   23260.21569457  .00000371  00000-0  38847-4 0  9999,2 55277  70.0014 164.9924 0002920 271.5078  88.5747 14.98327632 37305,6950.2,96.107,574.095,570.036,0.0
55277.0,STARLINK-5299,PAYLOAD,2023-09-18 02:00:20,14.98338452,0.0002916,70.0011,162.8039,272.7316,87.3509,3.8661e-05,3.68e-06,0.0,0 STARLINK-5299,1 55277U 23010J   23261.08356634  .00000368  00000-0  38661-4 0  9996,2 55277  70.0011 162.8039 0002916 272.7316  87.3509 14.98338452 37124,6950.167,96.106,574.058,570.005,0.0
55277.0,STARLINK-5299,PAYLOAD,2023-09-18 03:36:28,14.98340769,0.0002945,70.0011,162.6355,273.8702,86.212,3.508e-05,3.26e-06,0.0,0 STARLINK-5299,1 55277U 23010J   23261.15032462  .00000326  00000-0  35080-4 0  9990,2 55277  70.0011 162.6355 0002945 273.8702  86.2120 14.98340769 37442,6950.16,96.106,574.071,569.978,0.0
55277.0,STARLINK-5299,PAYLOAD,2023-09-18 18:01:41,14.98327767,0.0002843,70.0013,161.1212,275.1611,84.9224,1.2108e-05,5.2e-07,0.0,0 STARLINK-5299,1 55277U 23010J   23261.75117227  .00000052  00000-0  12108-4 0  9991,2 55277  70.0013 161.1212 0002843 275.1611  84.9224 14.98327767 37220,6950.2,96.107,574.041,570.089,0.0
55277.0,STARLINK-5299,PAYLOAD,2023-09-18 21:13:57,14.9832853,0.0002893,70.0013,160.7845,274.1518,85.931,9.1438e-07,-8.2e-07,0.0,0 STARLINK-5299,1 55277U 23010J   23261.88469213 -.00000082  00000-0  91438-6 0  9999,2 55277  70.0013 160.7845 0002893 274.1518  85.9310 14.98328530 37559,6950.197,96.107,574.073,570.052,0.0
55277.0,STARLINK-5299,PAYLOAD,2023-09-19 02:02:21,14.98332505,0.0002818,70.0012,160.2796,271.4731,88.6105,9.2729e-05,1.014e-05,0.0,0 STARLINK-5299,1 55277U 23010J   23262.08496666  .00001014  00000-0  92729-4 0  9991,2 55277  70.0012 160.2796 0002818 271.4731  88.6105 14.98332505 37270,6950.185,96.107,574.009,570.092,0.0
55277.0,STARLINK-5299,PAYLOAD,2023-09-20 02:04:21,14.98334664,0.0002804,70.0019,157.7571,270.4938,89.59,1.6309e-05,1.02e-06,0.0,0 STARLINK-5299,1 55277U 23010J   23263.08636438  .00000102  00000-0  16309-4 0  9992,2 55277  70.0019 157.7571 0002804 270.4938  89.5900 14.98334664 37420,6950.178,96.107,573.992,570.095,0.0
55277.0,STARLINK-5299,PAYLOAD,2023-09-20 10:05:02,14.98362158,0.0002568,70.0031,156.9152,269.7128,90.3737,-0.00073089,-8.81e-05,0.0,0 STARLINK-5299,1 55277U 23010J   23263.42016361 -.00008810  00000-0 -73089-3 0  9990,2 55277  70.0031 156.9152 0002568 269.7128  90.3737 14.98362158 37785,6950.093,96.105,573.743,570.174,0.0
55277.0,STARLINK-5299,PAYLOAD,2023-09-20 18:05:43,14.98321041,0.0002563,70.0014,156.0751,255.41,104.6774,-0.00011089,-1.415e-05,0.0,0 STARLINK-5299,1 55277U 23010J   23263.75397720 -.00001415  00000-0 -11089-3 0  9993,2 55277  70.0014 156.0751 0002563 255.4100 104.6774 14.98321041 37527,6950.221,96.108,573.867,570.304,0.0
55277.0,STARLINK-5299,PAYLOAD,2023-09-20 21:18:00,14.98316423,0.0002575,70.0027,155.7398,246.8438,113.245,-0.0001261,-1.597e-05,0.0,0 STARLINK-5299,1 55277U 23010J   23263.88750100 -.00001597  00000-0 -12610-3 0  9994,2 55277  70.0027 155.7398 0002575 246.8438 113.2450 14.98316423 37856,6950.235,96.108,573.89,570.31,0.0
55277.0,STARLINK-5299,PAYLOAD,2023-09-21 03:42:32,14.98314388,0.0002696,70.0016,155.0634,254.2505,105.8356,-0.00013931,-1.754e-05,0.0,0 STARLINK-5299,1 55277U 23010J   23264.15454475 -.00001754  00000-0 -13931-3 0  9993,2 55277  70.0016 155.0634 0002696 254.2505 105.8356 14.98314388 37582,6950.241,96.108,573.98,570.232,0.0
55277.0,STARLINK-5299,PAYLOAD,2023-09-21 21:20:00,14.98324041,0.0002815,70.0016,153.2119,268.2391,91.8445,-2.9163e-05,-4.41e-06,0.0,0 STARLINK-5299,1 55277U 23010J   23264.88889829 -.00000441  00000-0 -29163-4 0  9995,2 55277  70.0016 153.2119 0002815 268.2391  91.8445 14.98324041 38009,6950.211,96.107,574.033,570.12,0.0
55277.0,STARLINK-5299,PAYLOAD,2023-09-22 00:32:16,14.98328979,0.0002749,70.0008,152.8748,269.0825,91.0019,1.683e-06,-7.3e-07,0.0,0 STARLINK-5299,1 55277U 23010J   23265.02241470 -.00000073  00000-0  16830-5 0  9994,2 55277  70.0008 152.8748 0002749 269.0825  91.0019 14.98328979 37710,6950.196,96.107,573.972,570.15,0.0
